start=new Date('2023-04-04T00:00:00.000Z').valueOf();
sats=[{"TIME_SYSTEM":"UTC","BSTAR":"0.00039585000000","COUNTRY_CODE":"US","ECCENTRICITY":"0.00016030","INCLINATION":"53.0530","REV_AT_EPOCH":"10561","CENTER_NAME":"EARTH","TLE_LINE2":"2 48358  53.0530 128.9798 0001603  74.0706 286.0459 15.06422647105618","SEMIMAJOR_AXIS":"6925.279","OBJECT_TYPE":"PAYLOAD","SITE":"AFETR","MEAN_MOTION_DDOT":"0.0000000000000","REF_FRAME":"TEME","ELEMENT_SET_NO":"999","PERIAPSIS":"546.034","NORAD_CAT_ID":"48358","EPOCH":"2023-04-03T19:27:52.103808","MEAN_MOTION_DOT":"0.00005623","GP_ID":"229422508","ARG_OF_PERICENTER":"74.0706","FILE":"3879321","RCS_SIZE":"LARGE","DECAY_DATE":null,"APOAPSIS":"548.254","EPHEMERIS_TYPE":"0","MEAN_MOTION":"15.06422647","CLASSIFICATION_TYPE":"U","PERIOD":"95.591","OBJECT_NAME":"STARLINK-2624","TLE_LINE1":"1 48358U 21038F   23093.81101972  .00005623  00000-0  39585-3 0  9997","MEAN_ANOMALY":"286.0459","LAUNCH_DATE":"2021-05-04","OBJECT_ID":"2021-038F","RA_OF_ASC_NODE":"128.9798","MEAN_ELEMENT_THEORY":"SGP4"},{"BSTAR":"-0.00110150000000","TIME_SYSTEM":"UTC","COUNTRY_CODE":"US","ECCENTRICITY":"0.00004560","REV_AT_EPOCH":"10561","INCLINATION":"53.0524","TLE_LINE2":"2 48359  53.0524 128.9943 0000456 111.7551 248.3486 15.06397030105614","SEMIMAJOR_AXIS":"6925.358","OBJECT_TYPE":"PAYLOAD","CENTER_NAME":"EARTH","REF_FRAME":"TEME","SITE":"AFETR","MEAN_MOTION_DDOT":"0.0000000000000","PERIAPSIS":"546.907","ELEMENT_SET_NO":"999","NORAD_CAT_ID":"48359","GP_ID":"229422258","ARG_OF_PERICENTER":"111.7551","FILE":"3879321","EPOCH":"2023-04-03T19:22:34.070592","MEAN_MOTION_DOT":"-0.00016648","RCS_SIZE":"LARGE","APOAPSIS":"547.538","EPHEMERIS_TYPE":"0","MEAN_MOTION":"15.06397030","DECAY_DATE":null,"PERIOD":"95.592","CLASSIFICATION_TYPE":"U","LAUNCH_DATE":"2021-05-04","MEAN_ANOMALY":"248.3486","OBJECT_NAME":"STARLINK-2628","TLE_LINE1":"1 48359U 21038G   23093.80733878 -.00016648  00000-0 -11015-2 0  9991","MEAN_ELEMENT_THEORY":"SGP4","OBJECT_ID":"2021-038G","RA_OF_ASC_NODE":"128.9943"},{"TIME_SYSTEM":"UTC","BSTAR":"0.00092558000000","COUNTRY_CODE":"US","ECCENTRICITY":"0.00010460","INCLINATION":"53.0519","REV_AT_EPOCH":"10557","CENTER_NAME":"EARTH","TLE_LINE2":"2 48360  53.0519 130.2025 0001046  78.9146 281.1960 15.06415119105573","OBJECT_TYPE":"PAYLOAD","SEMIMAJOR_AXIS":"6925.302","MEAN_MOTION_DDOT":"0.0000000000000","SITE":"AFETR","REF_FRAME":"TEME","ELEMENT_SET_NO":"999","PERIAPSIS":"546.443","NORAD_CAT_ID":"48360","MEAN_MOTION_DOT":"0.00013537","EPOCH":"2023-04-03T12:55:07.760928","FILE":"3879059","ARG_OF_PERICENTER":"78.9146","GP_ID":"229390624","RCS_SIZE":"LARGE","DECAY_DATE":null,"MEAN_MOTION":"15.06415119","EPHEMERIS_TYPE":"0","APOAPSIS":"547.892","PERIOD":"95.591","CLASSIFICATION_TYPE":"U","TLE_LINE1":"1 48360U 21038H   23093.53828427  .00013537  00000-0  92558-3 0  9992","OBJECT_NAME":"STARLINK-2622","MEAN_ANOMALY":"281.1960","LAUNCH_DATE":"2021-05-04","RA_OF_ASC_NODE":"130.2025","OBJECT_ID":"2021-038H","MEAN_ELEMENT_THEORY":"SGP4"},{"INCLINATION":"53.0545","REV_AT_EPOCH":"10561","ECCENTRICITY":"0.00017130","COUNTRY_CODE":"US","TIME_SYSTEM":"UTC","BSTAR":"0.00077874000000","ELEMENT_SET_NO":"999","PERIAPSIS":"545.993","MEAN_MOTION_DDOT":"0.0000000000000","SITE":"AFETR","REF_FRAME":"TEME","CENTER_NAME":"EARTH","TLE_LINE2":"2 48361  53.0545 129.0275 0001713  81.5352 278.5832 15.06411186105619","OBJECT_TYPE":"PAYLOAD","SEMIMAJOR_AXIS":"6925.314","RCS_SIZE":"LARGE","MEAN_MOTION_DOT":"0.00011340","EPOCH":"2023-04-03T19:11:59.120448","FILE":"3879321","ARG_OF_PERICENTER":"81.5352","GP_ID":"229423254","NORAD_CAT_ID":"48361","RA_OF_ASC_NODE":"129.0275","OBJECT_ID":"2021-038J","MEAN_ELEMENT_THEORY":"SGP4","TLE_LINE1":"1 48361U 21038J   23093.79998982  .00011340  00000-0  77874-3 0  9999","OBJECT_NAME":"STARLINK-2591","MEAN_ANOMALY":"278.5832","LAUNCH_DATE":"2021-05-04","PERIOD":"95.591","CLASSIFICATION_TYPE":"U","DECAY_DATE":null,"EPHEMERIS_TYPE":"0","MEAN_MOTION":"15.06411186","APOAPSIS":"548.366"},{"BSTAR":"0.00032533000000","TIME_SYSTEM":"UTC","COUNTRY_CODE":"US","ECCENTRICITY":"0.00018320","REV_AT_EPOCH":"10562","INCLINATION":"53.0547","TLE_LINE2":"2 48362  53.0547 128.9753 0001832  58.1337 301.9830 15.06421160105629","SEMIMAJOR_AXIS":"6925.284","OBJECT_TYPE":"PAYLOAD","CENTER_NAME":"EARTH","REF_FRAME":"TEME","SITE":"AFETR","MEAN_MOTION_DDOT":"0.0000000000000","PERIAPSIS":"545.880","ELEMENT_SET_NO":"999","NORAD_CAT_ID":"48362","GP_ID":"229422008","ARG_OF_PERICENTER":"58.1337","FILE":"3879321","EPOCH":"2023-04-03T19:59:45.442176","MEAN_MOTION_DOT":"0.00004570","RCS_SIZE":"LARGE","APOAPSIS":"548.417","MEAN_MOTION":"15.06421160","EPHEMERIS_TYPE":"0","DECAY_DATE":null,"CLASSIFICATION_TYPE":"U","PERIOD":"95.591","MEAN_ANOMALY":"301.9830","LAUNCH_DATE":"2021-05-04","OBJECT_NAME":"STARLINK-2578","TLE_LINE1":"1 48362U 21038K   23093.83316484  .00004570  00000-0  32533-3 0  9996","MEAN_ELEMENT_THEORY":"SGP4","OBJECT_ID":"2021-038K","RA_OF_ASC_NODE":"128.9753"},{"COUNTRY_CODE":"US","TIME_SYSTEM":"UTC","BSTAR":"0.00002450600000","INCLINATION":"53.0523","REV_AT_EPOCH":"10568","ECCENTRICITY":"0.00014630","CENTER_NAME":"EARTH","OBJECT_TYPE":"PAYLOAD","TLE_LINE2":"2 48363  53.0523 124.1327 0001463 101.9998 258.1155 15.06397867105684","SEMIMAJOR_AXIS":"6925.355","ELEMENT_SET_NO":"999","PERIAPSIS":"546.207","MEAN_MOTION_DDOT":"0.0000000000000","SITE":"AFETR","REF_FRAME":"TEME","NORAD_CAT_ID":"48363","RCS_SIZE":"LARGE","MEAN_MOTION_DOT":"0.00000084","EPOCH":"2023-04-03T18:38:08.521728","FILE":"3879321","ARG_OF_PERICENTER":"101.9998","GP_ID":"229422759","PERIOD":"95.592","CLASSIFICATION_TYPE":"U","DECAY_DATE":null,"MEAN_MOTION":"15.06397867","EPHEMERIS_TYPE":"0","APOAPSIS":"548.233","RA_OF_ASC_NODE":"124.1327","OBJECT_ID":"2021-038L","MEAN_ELEMENT_THEORY":"SGP4","TLE_LINE1":"1 48363U 21038L   23093.77648752  .00000084  00000-0  24506-4 0  9994","OBJECT_NAME":"STARLINK-2626","MEAN_ANOMALY":"258.1155","LAUNCH_DATE":"2021-05-04"},{"SEMIMAJOR_AXIS":"6925.325","TLE_LINE2":"2 48364  53.0518 124.2710 0001892  74.1091 286.0106 15.06407808105680","OBJECT_TYPE":"PAYLOAD","CENTER_NAME":"EARTH","PERIAPSIS":"545.879","ELEMENT_SET_NO":"999","REF_FRAME":"TEME","MEAN_MOTION_DDOT":"0.0000000000000","SITE":"AFETR","COUNTRY_CODE":"US","BSTAR":"0.00063671000000","TIME_SYSTEM":"UTC","REV_AT_EPOCH":"10568","INCLINATION":"53.0518","ECCENTRICITY":"0.00018920","PERIOD":"95.592","CLASSIFICATION_TYPE":"U","MEAN_MOTION":"15.06407808","EPHEMERIS_TYPE":"0","APOAPSIS":"548.500","DECAY_DATE":null,"MEAN_ELEMENT_THEORY":"SGP4","RA_OF_ASC_NODE":"124.2710","OBJECT_ID":"2021-038M","LAUNCH_DATE":"2021-05-04","MEAN_ANOMALY":"286.0106","TLE_LINE1":"1 48364U 21038M   23093.79125235  .00009217  00000-0  63671-3 0  9995","OBJECT_NAME":"STARLINK-2611","NORAD_CAT_ID":"48364","RCS_SIZE":"LARGE","ARG_OF_PERICENTER":"74.1091","FILE":"3879321","GP_ID":"229423010","MEAN_MOTION_DOT":"0.00009217","EPOCH":"2023-04-03T18:59:24.203040"},{"EPOCH":"2023-04-03T19:36:31.665888","MEAN_MOTION_DOT":"0.00013800","GP_ID":"229423755","FILE":"3879321","ARG_OF_PERICENTER":"58.9752","RCS_SIZE":"LARGE","NORAD_CAT_ID":"48365","OBJECT_NAME":"STARLINK-2608","TLE_LINE1":"1 48365U 21038N   23093.81703317  .00013800  00000-0  94328-3 0  9998","MEAN_ANOMALY":"301.1432","LAUNCH_DATE":"2021-05-04","OBJECT_ID":"2021-038N","RA_OF_ASC_NODE":"123.9538","MEAN_ELEMENT_THEORY":"SGP4","DECAY_DATE":null,"APOAPSIS":"548.566","MEAN_MOTION":"15.06409527","EPHEMERIS_TYPE":"0","PERIOD":"95.592","CLASSIFICATION_TYPE":"U","ECCENTRICITY":"0.00019950","INCLINATION":"53.0533","REV_AT_EPOCH":"10569","TIME_SYSTEM":"UTC","BSTAR":"0.00094328000000","COUNTRY_CODE":"US","SITE":"AFETR","MEAN_MOTION_DDOT":"0.0000000000000","REF_FRAME":"TEME","ELEMENT_SET_NO":"999","PERIAPSIS":"545.803","CENTER_NAME":"EARTH","OBJECT_TYPE":"PAYLOAD","TLE_LINE2":"2 48365  53.0533 123.9538 0001995  58.9752 301.1432 15.06409527105692","SEMIMAJOR_AXIS":"6925.319"},{"PERIOD":"95.591","CLASSIFICATION_TYPE":"U","DECAY_DATE":null,"EPHEMERIS_TYPE":"0","MEAN_MOTION":"15.06410152","APOAPSIS":"548.302","RA_OF_ASC_NODE":"119.0060","OBJECT_ID":"2021-038P","MEAN_ELEMENT_THEORY":"SGP4","TLE_LINE1":"1 48366U 21038P   23093.80461041  .00012979  00000-0  88839-3 0  9999","OBJECT_NAME":"STARLINK-2631","MEAN_ANOMALY":"276.8801","LAUNCH_DATE":"2021-05-04","NORAD_CAT_ID":"48366","RCS_SIZE":"LARGE","MEAN_MOTION_DOT":"0.00012979","EPOCH":"2023-04-03T19:18:38.339424","FILE":"3879321","ARG_OF_PERICENTER":"83.2372","GP_ID":"229422509","CENTER_NAME":"EARTH","TLE_LINE2":"2 48366  53.0527 119.0060 0001617  83.2372 276.8801 15.06410152105753","SEMIMAJOR_AXIS":"6925.317","OBJECT_TYPE":"PAYLOAD","ELEMENT_SET_NO":"999","PERIAPSIS":"546.063","MEAN_MOTION_DDOT":"0.0000000000000","SITE":"AFETR","REF_FRAME":"TEME","COUNTRY_CODE":"US","TIME_SYSTEM":"UTC","BSTAR":"0.00088839000000","INCLINATION":"53.0527","REV_AT_EPOCH":"10575","ECCENTRICITY":"0.00016170"},{"ELEMENT_SET_NO":"999","PERIAPSIS":"546.041","SITE":"AFETR","MEAN_MOTION_DDOT":"0.0000000000000","REF_FRAME":"TEME","CENTER_NAME":"EARTH","TLE_LINE2":"2 48367  53.0517 119.0242 0001634  82.2244 277.8931 15.06413208105751","OBJECT_TYPE":"PAYLOAD","SEMIMAJOR_AXIS":"6925.308","INCLINATION":"53.0517","REV_AT_EPOCH":"10575","ECCENTRICITY":"0.00016340","COUNTRY_CODE":"US","TIME_SYSTEM":"UTC","BSTAR":"0.00097062000000","OBJECT_ID":"2021-038Q","RA_OF_ASC_NODE":"119.0242","MEAN_ELEMENT_THEORY":"SGP4","OBJECT_NAME":"STARLINK-2643","TLE_LINE1":"1 48367U 21038Q   23093.80092272  .00014210  00000-0  97062-3 0  9994","LAUNCH_DATE":"2021-05-04","MEAN_ANOMALY":"277.8931","PERIOD":"95.591","CLASSIFICATION_TYPE":"U","DECAY_DATE":null,"APOAPSIS":"548.305","EPHEMERIS_TYPE":"0","MEAN_MOTION":"15.06413208","RCS_SIZE":"LARGE","EPOCH":"2023-04-03T19:13:19.723008","MEAN_MOTION_DOT":"0.00014210","GP_ID":"229422259","ARG_OF_PERICENTER":"82.2244","FILE":"3879321","NORAD_CAT_ID":"48367"}];
